OBJECT_NAME,OBJECT_ID,EPOCH,MEAN_MOTION,ECCENTRICITY,INCLINATION,RA_OF_ASC_NODE,ARG_OF_PERICENTER,MEAN_ANOMALY,EPHEMERIS_TYPE,CLASSIFICATION_TYPE,NORAD_CAT_ID,ELEMENT_SET_NO,REV_AT_EPOCH,BSTAR,MEAN_MOTION_DOT,MEAN_MOTION_DDOT
ONEWEB-0634,2023-043AF,2026-07-01T03:26:33.872640,13.15547717,.0002354,87.8995,256.4488,97.0066,263.1332,0,U,56075,999,15823,-.42725E-3,-.148E-5,0
ONEWEB-0635,2023-043AG,2026-07-01T03:19:42.921408,13.15547330,.0001837,87.9006,256.4135,93.7885,266.3455,0,U,56076,999,15826,.31505E-4,.25E-6,0
ONEWEB-0636,2023-043AH,2026-07-01T03:08:17.683872,13.15548128,.0001875,87.9004,256.4208,93.6747,266.4598,0,U,56077,999,15824,-.52187E-3,-.184E-5,0
ONEWEB-0637,2023-043AJ,2026-06-30T05:04:54.545088,13.15549749,.00021501,87.8998,256.6197,91.5278,268.6099,0,U,56078,999,15814,.28477686E-3,.12E-5,0
ONEWEB-0647,2023-043AK,2026-07-01T02:52:20.725248,13.15548575,.000185,87.8999,256.4511,99.2266,260.9074,0,U,56079,999,15825,.10718E-3,.53E-6,0
ONEWEB-0651,2023-043AL,2026-07-01T04:35:00.939840,13.15548391,.0001964,87.8996,256.4307,92.5329,267.6027,0,U,56080,999,15946,.44032E-3,.179E-5,0
ONEWEB-0718,2023-043AM,2026-06-30T22:59:36.720096,13.15547567,.0002502,87.8994,256.4578,101.2644,258.8768,0,U,56081,999,15824,.41637E-3,.17E-5,0
ONEWEB-0561,2023-068A,2026-06-30T23:38:58.153056,13.20773782,.000162,87.9200,271.6936,99.2626,260.8691,0,U,56710,999,15132,.27086E-5,.14E-6,0
ONEWEB-0668,2023-068B,2026-07-01T02:36:03.583584,13.16594386,.0002531,87.9086,226.0077,89.3959,270.7462,0,U,56711,999,15361,.24054E-3,.105E-5,0
ONEWEB-0676,2023-068C,2026-07-01T02:47:27.640032,13.16594044,.0001798,87.9089,226.0121,88.2864,271.8473,0,U,56712,999,15353,.45528E-3,.187E-5,0
ONEWEB-0677,2023-068D,2026-06-30T23:22:01.756416,13.20770702,.0002072,87.9194,271.6877,88.6064,271.5306,0,U,56713,999,15162,.431E-4,.31E-6,0
ONEWEB-0678,2023-068E,2026-06-30T22:13:57.821088,13.15548515,.000183,87.9003,256.4576,106.0568,254.0764,0,U,56714,999,15109,-.50302E-3,-.177E-5,0
ONEWEB-0679,2023-068F,2026-07-01T03:37:36.507072,13.16593166,.0002309,87.9087,225.9969,82.0055,278.1338,0,U,56715,999,15356,-.17843E-4,.6E-7,0
ONEWEB-0680,2023-068G,2026-06-30T15:29:34.819296,13.21825387,.0002508,87.9254,241.2941,87.9993,272.1429,0,U,56716,999,15287,.46548143E-4,.32E-6,0
ONEWEB-0681,2023-068H,2026-06-30T22:17:43.391616,13.21823779,.0001395,87.9250,241.2386,72.7281,287.4005,0,U,56717,999,15290,.25436E-4,.24E-6,0
ONEWEB-0682,2023-068J,2026-06-30T22:48:11.962080,13.15547867,.0002432,87.9003,256.4531,90.7328,269.4081,0,U,56718,999,15126,-.2359E-3,-.76E-6,0
ONEWEB-0683,2023-068K,2026-06-30T05:07:11.530560,13.15550029,.00022965,87.9010,256.5998,97.3843,262.7548,0,U,56719,999,15113,.34514672E-3,.143E-5,0
ONEWEB-0684,2023-068L,2026-07-01T03:12:52.962048,13.15548854,.0002351,87.9003,256.4060,133.6546,226.4780,0,U,56720,999,15108,.21554E-3,.94E-6,0
ONEWEB-0686,2023-068M,2026-07-01T02:40:36.859008,13.16594019,.0002335,87.9075,226.0268,99.5951,260.5443,0,U,56721,999,15354,-.65162E-4,-.12E-6,0
ONEWEB-0694,2023-068N,2026-07-01T02:49:43.808160,13.16594322,.0002468,87.9099,225.9928,89.8818,270.2596,0,U,56722,999,15360,.6934E-6,.13E-6,0
ONEWEB-0696,2023-068P,2026-06-30T22:32:13.748064,13.15547996,.0001707,87.8996,256.4825,111.0672,249.0640,0,U,56723,999,15117,.18101E-4,.2E-6,0
ONEWEB-0703,2023-068Q,2026-06-30T22:45:53.869824,13.15547011,.0001225,87.8997,256.4617,114.2278,245.8981,0,U,56724,999,15106,.58237E-4,.35E-6,0
ONEWEB-0721,2023-068R,2026-07-01T03:17:02.341824,13.22470911,.0001831,86.6761,81.0643,78.2510,281.8829,0,U,56725,999,15978,.35776E-3,.164E-5,0
ONEWEB-0015,2024-188A,2026-07-01T01:01:44.361120,13.11417703,.0001862,87.8875,18.3339,70.4472,289.6856,0,U,61594,999,8627,-.11069E-2,-.38E-5,0
ONEWEB-0687,2024-188B,2026-06-30T23:24:20.045664,13.17649567,.0002245,87.9129,3.1324,81.1105,279.0281,0,U,61595,999,8771,-.13722E-4,.8E-7,0
ONEWEB-0688,2024-188C,2026-07-01T00:05:38.080608,13.17649734,.0002057,87.9127,3.1265,53.7694,306.3627,0,U,61596,999,8771,.82554E-4,.45E-6,0
ONEWEB-0689,2024-188D,2026-07-01T01:50:35.033568,13.11415501,.0002134,87.8892,18.2869,89.1708,270.9664,0,U,61597,999,8627,.14426E-2,.524E-5,0
ONEWEB-0690,2024-188E,2026-07-01T02:05:14.074944,13.11414636,.0001217,87.8885,18.2961,96.1868,263.9398,0,U,61598,999,8645,.46477E-3,.177E-5,0
ONEWEB-0691,2024-188F,2026-07-01T01:57:54.457056,13.11414998,.000194,87.8897,18.2071,76.1877,283.9467,0,U,61599,999,8630,.6292E-3,.236E-5,0
ONEWEB-0692,2024-188G,2026-07-01T02:27:12.029184,13.11415544,.0002363,87.8874,18.3141,104.1501,255.9890,0,U,61600,999,8629,-.1078E-2,-.369E-5,0
ONEWEB-0693,2024-188H,2026-07-01T00:22:39.101376,13.17649011,.000106,87.9124,3.1436,92.4314,267.6938,0,U,61601,999,8770,.4717E-4,.31E-6,0
