ONEWEB-0634             
1 56075U 23043AF  26182.14344760 -.00000148  00000+0 -42725-3 0  9990
2 56075  87.8995 256.4488 0002354  97.0066 263.1332 13.15547717158230
ONEWEB-0635             
1 56076U 23043AG  26182.13869122  .00000025  00000+0  31505-4 0  9991
2 56076  87.9006 256.4135 0001837  93.7885 266.3455 13.15547330158266
ONEWEB-0636             
1 56077U 23043AH  26182.13076023 -.00000184  00000+0 -52187-3 0  9998
2 56077  87.9004 256.4208 0001875  93.6747 266.4598 13.15548128158247
ONEWEB-0637             
1 56078U 23043AJ  26181.21174242  .00000120  00000+0  28478-3 0  9993
2 56078  87.8998 256.6197 0002150  91.5278 268.6099 13.15549749158140
ONEWEB-0647             
1 56079U 23043AK  26182.11968432  .00000053  00000+0  10718-3 0  9999
2 56079  87.8999 256.4511 0001850  99.2266 260.9074 13.15548575158254
ONEWEB-0651             
1 56080U 23043AL  26182.19098310  .00000179  00000+0  44032-3 0  9993
2 56080  87.8996 256.4307 0001964  92.5329 267.6027 13.15548391159460
ONEWEB-0718             
1 56081U 23043AM  26181.95806389  .00000170  00000+0  41637-3 0  9999
2 56081  87.8994 256.4578 0002502 101.2644 258.8768 13.15547567158249
ONEWEB-0561             
1 56710U 23068A   26181.98539529  .00000014  00000+0  27086-5 0  9998
2 56710  87.9200 271.6936 0001620  99.2626 260.8691 13.20773782151328
ONEWEB-0668             
1 56711U 23068B   26182.10837481  .00000105  00000+0  24054-3 0  9993
2 56711  87.9086 226.0077 0002531  89.3959 270.7462 13.16594386153618
ONEWEB-0676             
1 56712U 23068C   26182.11629213  .00000187  00000+0  45528-3 0  9996
2 56712  87.9089 226.0121 0001798  88.2864 271.8473 13.16594044153535
ONEWEB-0677             
1 56713U 23068D   26181.97363144  .00000031  00000+0  43100-4 0  9991
2 56713  87.9194 271.6877 0002072  88.6064 271.5306 13.20770702151621
ONEWEB-0678             
1 56714U 23068E   26181.92636367 -.00000177  00000+0 -50302-3 0  9991
2 56714  87.9003 256.4576 0001830 106.0568 254.0764 13.15548515151097
ONEWEB-0679             
1 56715U 23068F   26182.15111698  .00000006  00000+0 -17843-4 0  9997
2 56715  87.9087 225.9969 0002309  82.0055 278.1338 13.16593166153564
ONEWEB-0680             
1 56716U 23068G   26181.64554189  .00000032  00000+0  46548-4 0  9999
2 56716  87.9254 241.2941 0002508  87.9993 272.1429 13.21825387152875
ONEWEB-0681             
1 56717U 23068H   26181.92897444  .00000024  00000+0  25436-4 0  9999
2 56717  87.9250 241.2386 0001395  72.7281 287.4005 13.21823779152906
ONEWEB-0682             
1 56718U 23068J   26181.95013845 -.00000076  00000+0 -23590-3 0  9995
2 56718  87.9003 256.4531 0002432  90.7328 269.4081 13.15547867151264
ONEWEB-0683             
1 56719U 23068K   26181.21332790  .00000143  00000+0  34515-3 0  9990
2 56719  87.9010 256.5998 0002296  97.3843 262.7548 13.15550029151138
ONEWEB-0684             
1 56720U 23068L   26182.13394632  .00000094  00000+0  21554-3 0  9991
2 56720  87.9003 256.4060 0002351 133.6546 226.4780 13.15548854151089
ONEWEB-0686             
1 56721U 23068M   26182.11153772 -.00000012  00000+0 -65162-4 0  9994
2 56721  87.9075 226.0268 0002335  99.5951 260.5443 13.16594019153547
ONEWEB-0694             
1 56722U 23068N   26182.11786815  .00000013  00000+0  69340-6 0  9998
2 56722  87.9099 225.9928 0002468  89.8818 270.2596 13.16594322153607
ONEWEB-0696             
1 56723U 23068P   26181.93904801  .00000020  00000+0  18101-4 0  9990
2 56723  87.8996 256.4825 0001707 111.0672 249.0640 13.15547996151177
ONEWEB-0703             
1 56724U 23068Q   26181.94854016  .00000035  00000+0  58237-4 0  9994
2 56724  87.8997 256.4617 0001225 114.2278 245.8981 13.15547011151068
ONEWEB-0721             
1 56725U 23068R   26182.13683266  .00000164  00000+0  35776-3 0  9999
2 56725  86.6761  81.0643 0001831  78.2510 281.8829 13.22470911159787
ONEWEB-0015             
1 61594U 24188A   26182.04287455 -.00000380  00000+0 -11069-2 0  9993
2 61594  87.8875  18.3339 0001862  70.4472 289.6856 13.11417703 86273
ONEWEB-0687             
1 61595U 24188B   26181.97523201  .00000008  00000+0 -13722-4 0  9993
2 61595  87.9129   3.1324 0002245  81.1105 279.0281 13.17649567 87717
ONEWEB-0688             
1 61596U 24188C   26182.00391297  .00000045  00000+0  82554-4 0  9996
2 61596  87.9127   3.1265 0002057  53.7694 306.3627 13.17649734 87713
ONEWEB-0689             
1 61597U 24188D   26182.07679437  .00000524  00000+0  14426-2 0  9992
2 61597  87.8892  18.2869 0002134  89.1708 270.9664 13.11415501 86278
ONEWEB-0690             
1 61598U 24188E   26182.08696846  .00000177  00000+0  46477-3 0  9993
2 61598  87.8885  18.2961 0001217  96.1868 263.9398 13.11414636 86454
ONEWEB-0691             
1 61599U 24188F   26182.08188029  .00000236  00000+0  62920-3 0  9990
2 61599  87.8897  18.2071 0001940  76.1877 283.9467 13.11414998 86305
ONEWEB-0692             
1 61600U 24188G   26182.10222256 -.00000369  00000+0 -10780-2 0  9992
2 61600  87.8874  18.3141 0002363 104.1501 255.9890 13.11415544 86293
ONEWEB-0693             
1 61601U 24188H   26182.01573034  .00000031  00000+0  47170-4 0  9995
2 61601  87.9124   3.1436 0001060  92.4314 267.6938 13.17649011 87700
